[{"OBJECT_NAME":"STARLINK-35445","OBJECT_ID":"2025-223AC","EPOCH":"2026-03-09T21:15:27.598176","MEAN_MOTION":15.30207832,"ECCENTRICITY":9.957e-5,"INCLINATION":53.1593,"RA_OF_ASC_NODE":293.4007,"ARG_OF_PERICENTER":161.3789,"MEAN_ANOMALY":198.7248,"EPHEMERIS_TYPE":0,"CLASSIFICATION_TYPE":"U","NORAD_CAT_ID":65880,"ELEMENT_SET_NO":999,"REV_AT_EPOCH":2423,"BSTAR":0.00087466974,"MEAN_MOTION_DOT":0.00025642,"MEAN_MOTION_DDOT":0},{"OBJECT_NAME":"SL-3 R\/B","OBJECT_ID":"1983-003B","EPOCH":"2026-03-09T21:31:00.897888","MEAN_MOTION":15.34640469,"ECCENTRICITY":0.00285789,"INCLINATION":81.155,"RA_OF_ASC_NODE":261.9078,"ARG_OF_PERICENTER":155.4571,"MEAN_ANOMALY":204.8036,"EPHEMERIS_TYPE":0,"CLASSIFICATION_TYPE":"U","NORAD_CAT_ID":13771,"ELEMENT_SET_NO":999,"REV_AT_EPOCH":35642,"BSTAR":0.00033440366,"MEAN_MOTION_DOT":0.00011405,"MEAN_MOTION_DDOT":0}]
